[{"OBJECT_NAME":"STARLINK-30827","OBJECT_ID":"2023-167W","EPOCH":"2026-03-08T14:30:23.603040","MEAN_MOTION":15.27576838,"ECCENTRICITY":0.00013335,"INCLINATION":43.001,"RA_OF_ASC_NODE":149.1353,"ARG_OF_PERICENTER":267.1665,"MEAN_ANOMALY":92.9034,"EPHEMERIS_TYPE":0,"CLASSIFICATION_TYPE":"U","NORAD_CAT_ID":58195,"ELEMENT_SET_NO":999,"REV_AT_EPOCH":13082,"BSTAR":-8.3947998e-5,"MEAN_MOTION_DOT":-2.571e-5,"MEAN_MOTION_DDOT":0},{"OBJECT_NAME":"FLOCK 4G-30","OBJECT_ID":"2025-009BY","EPOCH":"2026-03-09T17:00:32.842080","MEAN_MOTION":15.27244548,"ECCENTRICITY":0.00037948,"INCLINATION":97.3969,"RA_OF_ASC_NODE":150.6012,"ARG_OF_PERICENTER":342.4152,"MEAN_ANOMALY":17.6955,"EPHEMERIS_TYPE":0,"CLASSIFICATION_TYPE":"U","NORAD_CAT_ID":62679,"ELEMENT_SET_NO":999,"REV_AT_EPOCH":12134,"BSTAR":0.00049474629,"MEAN_MOTION_DOT":0.00013147,"MEAN_MOTION_DDOT":0}]
